[{"ORDINAL":"1","COMMENT":"GENERATED VIA SPACETRACK.ORG API","ORIGINATOR":"JSPOC","NORAD_CAT_ID":"40005","OBJECT_NAME":"DELTA 4 DEB","OBJECT_TYPE":"DEBRIS","CLASSIFICATION_TYPE":"U","INTLDES":"14026M","EPOCH":"2014-06-20 01:24:49","EPOCH_MICROSECONDS":"265855","MEAN_MOTION":"9.07433314","ECCENTRICITY":"0.3253813","INCLINATION":"52.6992","RA_OF_ASC_NODE":"99.104","ARG_OF_PERICENTER":"107.2292","MEAN_ANOMALY":"354.6413","EPHEMERIS_TYPE":"0","ELEMENT_SET_NO":"3","REV_AT_EPOCH":"110","BSTAR":"0.078839","MEAN_MOTION_DOT":"0.23326793","MEAN_MOTION_DDOT":"8.6946e-07","FILE":"1701230","TLE_LINE0":"0 DELTA 4 DEB","TLE_LINE1":"1 40005U 14026M   14171.05890354  .23326793  86946-6  78839-1 0    36","TLE_LINE2":"2 40005 052.6992 099.1040 3253813 107.2292 354.6413 09.07433314  1107","OBJECT_ID":"2014-026M","OBJECT_NUMBER":"40005"},{"ORDINAL":"2","COMMENT":"GENERATED VIA SPACETRACK.ORG API","ORIGINATOR":"JSPOC","NORAD_CAT_ID":"40005","OBJECT_NAME":"DELTA 4 DEB","OBJECT_TYPE":"DEBRIS","CLASSIFICATION_TYPE":"U","INTLDES":"14026M","EPOCH":"2014-06-19 00:57:31","EPOCH_MICROSECONDS":"121855","MEAN_MOTION":"8.60490289","ECCENTRICITY":"0.3477696","INCLINATION":"52.7201","RA_OF_ASC_NODE":"100.7136","ARG_OF_PERICENTER":"105.0062","MEAN_ANOMALY":"353.6788","EPHEMERIS_TYPE":"0","ELEMENT_SET_NO":"2","REV_AT_EPOCH":"101","BSTAR":"0.086909","MEAN_MOTION_DOT":"0.15925078","MEAN_MOTION_DDOT":"7.3273e-07","FILE":"1700567","TLE_LINE0":"0 DELTA 4 DEB","TLE_LINE1":"1 40005U 14026M   14170.03994354  .15925078  73273-6  86909-1 0    25","TLE_LINE2":"2 40005 052.7201 100.7136 3477696 105.0062 353.6788 08.60490289  1010","OBJECT_ID":"2014-026M","OBJECT_NUMBER":"40005"},{"ORDINAL":"3","COMMENT":"GENERATED VIA SPACETRACK.ORG API","ORIGINATOR":"JSPOC","NORAD_CAT_ID":"40005","OBJECT_NAME":"DELTA 4 DEB","OBJECT_TYPE":"DEBRIS","CLASSIFICATION_TYPE":"U","INTLDES":"14026M","EPOCH":"2014-06-18 02:17:23","EPOCH_MICROSECONDS":"388576","MEAN_MOTION":"8.29839115","ECCENTRICITY":"0.3648663","INCLINATION":"52.6976","RA_OF_ASC_NODE":"102.3655","ARG_OF_PERICENTER":"105.5189","MEAN_ANOMALY":"358.2227","EPHEMERIS_TYPE":"0","ELEMENT_SET_NO":"1","REV_AT_EPOCH":"93","BSTAR":"0.040444","MEAN_MOTION_DOT":"0.12213705","MEAN_MOTION_DDOT":"6.3725e-07","FILE":"1700379","TLE_LINE0":"0 DELTA 4 DEB","TLE_LINE1":"1 40005U 14026M   14169.09540959  .12213705  63725-6  40444-1 0    15","TLE_LINE2":"2 40005 052.6976 102.3655 3648663 105.5189 358.2227 08.29839115   930","OBJECT_ID":"2014-026M","OBJECT_NUMBER":"40005"},{"ORDINAL":"1","COMMENT":"GENERATED VIA SPACETRACK.ORG API","ORIGINATOR":"JSPOC","NORAD_CAT_ID":"40007","OBJECT_NAME":"DELTA 4 DEB","OBJECT_TYPE":"DEBRIS","CLASSIFICATION_TYPE":"U","INTLDES":"14026P","EPOCH":"2014-06-17 20:35:42","EPOCH_MICROSECONDS":"4320","MEAN_MOTION":"9.16625494","ECCENTRICITY":"0.3195302","INCLINATION":"52.6746","RA_OF_ASC_NODE":"107.5912","ARG_OF_PERICENTER":"99.7541","MEAN_ANOMALY":"327.1848","EPHEMERIS_TYPE":"0","ELEMENT_SET_NO":"1","REV_AT_EPOCH":"69","BSTAR":"0.22237","MEAN_MOTION_DOT":"0.43207332","MEAN_MOTION_DDOT":"9.2272e-07","FILE":"1700381","TLE_LINE0":"0 DELTA 4 DEB","TLE_LINE1":"1 40007U 14026P   14168.85812505  .43207332  92272-6  22237+0 0    19","TLE_LINE2":"2 40007 052.6746 107.5912 3195302 099.7541 327.1848 09.16625494   690","OBJECT_ID":"2014-026P","OBJECT_NUMBER":"40007"},{"ORDINAL":"1","COMMENT":"GENERATED VIA SPACETRACK.ORG API","ORIGINATOR":"JSPOC","NORAD_CAT_ID":"40008","OBJECT_NAME":"DELTA 4 DEB","OBJECT_TYPE":"DEBRIS","CLASSIFICATION_TYPE":"U","INTLDES":"14026Q","EPOCH":"2014-06-11 21:46:55","EPOCH_MICROSECONDS":"248959","MEAN_MOTION":"13.81642924","ECCENTRICITY":"0.1086975","INCLINATION":"52.5645","RA_OF_ASC_NODE":"90.1371","ARG_OF_PERICENTER":"114.2509","MEAN_ANOMALY":"3.2847","EPHEMERIS_TYPE":"0","ELEMENT_SET_NO":"1","REV_AT_EPOCH":"110","BSTAR":"0.042182","MEAN_MOTION_DOT":"0.50631881","MEAN_MOTION_DDOT":"5.7721e-06","FILE":"1700382","TLE_LINE0":"0 DELTA 4 DEB","TLE_LINE1":"1 40008U 14026R   14162.90758390  .50631881  57721-5  42182-1 0    11","TLE_LINE2":"2 40008 052.5645 090.1371 1086975 114.2509 003.2847 13.81642924  1106","OBJECT_ID":"2014-026Q","OBJECT_NUMBER":"40008"},{"ORDINAL":"1","COMMENT":"GENERATED VIA SPACETRACK.ORG API","ORIGINATOR":"JSPOC","NORAD_CAT_ID":"40004","OBJECT_NAME":"DELTA 4 DEB","OBJECT_TYPE":"DEBRIS","CLASSIFICATION_TYPE":"U","INTLDES":"14026L","EPOCH":"2014-06-10 22:07:55","EPOCH_MICROSECONDS":"907904","MEAN_MOTION":"11.2054255","ECCENTRICITY":"0.2233497","INCLINATION":"52.7133","RA_OF_ASC_NODE":"102.8059","ARG_OF_PERICENTER":"102.7458","MEAN_ANOMALY":"5.2757","EPHEMERIS_TYPE":"0","ELEMENT_SET_NO":"1","REV_AT_EPOCH":"79","BSTAR":"0.058816","MEAN_MOTION_DOT":"0.24886558","MEAN_MOTION_DDOT":"3.1978e-06","FILE":"1700378","TLE_LINE0":"0 DELTA 4 DEB","TLE_LINE1":"1 40004U 14026L   14161.92217486  .24886558  31978-5  58816-1 0    15","TLE_LINE2":"2 40004 052.7133 102.8059 2233497 102.7458 005.2757 11.20542550   790","OBJECT_ID":"2014-026L","OBJECT_NUMBER":"40004"},{"ORDINAL":"1","COMMENT":"GENERATED VIA SPACETRACK.ORG API","ORIGINATOR":"JSPOC","NORAD_CAT_ID":"40009","OBJECT_NAME":"DELTA 4 DEB","OBJECT_TYPE":"DEBRIS","CLASSIFICATION_TYPE":"U","INTLDES":"14026R","EPOCH":"2014-06-09 01:25:46","EPOCH_MICROSECONDS":"206912","MEAN_MOTION":"12.2743633","ECCENTRICITY":"0.1750196","INCLINATION":"52.7006","RA_OF_ASC_NODE":"109.253","ARG_OF_PERICENTER":"100.7514","MEAN_ANOMALY":"306.237","EPHEMERIS_TYPE":"0","ELEMENT_SET_NO":"1","REV_AT_EPOCH":"61","BSTAR":"0.14606","MEAN_MOTION_DOT":"0.83145167","MEAN_MOTION_DDOT":"4.355e-06","FILE":"1700383","TLE_LINE0":"0 DELTA 4 DEB","TLE_LINE1":"1 40009U 14026S   14160.05956258  .83145167  43550-5  14606+0 0    15","TLE_LINE2":"2 40009 052.7006 109.2530 1750196 100.7514 306.2370 12.27436330   611","OBJECT_ID":"2014-026R","OBJECT_NUMBER":"40009"},{"ORDINAL":"1","COMMENT":"GENERATED VIA SPACETRACK.ORG API","ORIGINATOR":"JSPOC","NORAD_CAT_ID":"40003","OBJECT_NAME":"DELTA 4 DEB","OBJECT_TYPE":"DEBRIS","CLASSIFICATION_TYPE":"U","INTLDES":"14026K","EPOCH":"2014-06-08 03:21:16","EPOCH_MICROSECONDS":"659359","MEAN_MOTION":"6.4837447","ECCENTRICITY":"0.4611419","INCLINATION":"52.5422","RA_OF_ASC_NODE":"117.4357","ARG_OF_PERICENTER":"92.4034","MEAN_ANOMALY":"347.6964","EPHEMERIS_TYPE":"0","ELEMENT_SET_NO":"1","REV_AT_EPOCH":"19","BSTAR":"0.064127","MEAN_MOTION_DOT":"0.12283685","MEAN_MOTION_DDOT":"2.8243e-07","FILE":"1700377","TLE_LINE0":"0 DELTA 4 DEB","TLE_LINE1":"1 40003U 14026K   14159.13977615  .12283685  28243-6  64127-1 0    14","TLE_LINE2":"2 40003 052.5422 117.4357 4611419 092.4034 347.6964 06.48374470   197","OBJECT_ID":"2014-026K","OBJECT_NUMBER":"40003"},{"ORDINAL":"1","COMMENT":"GENERATED VIA SPACETRACK.ORG API","ORIGINATOR":"JSPOC","NORAD_CAT_ID":"40006","OBJECT_NAME":"DELTA 4 DEB","OBJECT_TYPE":"DEBRIS","CLASSIFICATION_TYPE":"U","INTLDES":"14026N","EPOCH":"2014-06-08 01:23:20","EPOCH_MICROSECONDS":"717951","MEAN_MOTION":"7.21305854","ECCENTRICITY":"0.421052","INCLINATION":"52.6979","RA_OF_ASC_NODE":"115.056","ARG_OF_PERICENTER":"95.3952","MEAN_ANOMALY":"312.696","EPHEMERIS_TYPE":"0","ELEMENT_SET_NO":"1","REV_AT_EPOCH":"20","BSTAR":"0.087099","MEAN_MOTION_DOT":"0.16811067","MEAN_MOTION_DDOT":"3.8819e-07","FILE":"1700380","TLE_LINE0":"0 DELTA 4 DEB","TLE_LINE1":"1 40006U 14026N   14159.05787868  .16811067  38819-6  87099-1 0    15","TLE_LINE2":"2 40006 052.6979 115.0560 4210520 095.3952 312.6960 07.21305854   209","OBJECT_ID":"2014-026N","OBJECT_NUMBER":"40006"},{"ORDINAL":"1","COMMENT":"GENERATED VIA SPACETRACK.ORG API","ORIGINATOR":"JSPOC","NORAD_CAT_ID":"39756","OBJECT_NAME":"DELTA 4 DEB","OBJECT_TYPE":"DEBRIS","CLASSIFICATION_TYPE":"U","INTLDES":"14026E","EPOCH":"2014-05-29 09:10:23","EPOCH_MICROSECONDS":"49407","MEAN_MOTION":"13.87644907","ECCENTRICITY":"0.1042751","INCLINATION":"52.6313","RA_OF_ASC_NODE":"101.4317","ARG_OF_PERICENTER":"107.8128","MEAN_ANOMALY":"24.5569","EPHEMERIS_TYPE":"0","ELEMENT_SET_NO":"8","REV_AT_EPOCH":"138","BSTAR":"0.03298","MEAN_MOTION_DOT":"0.2381125","MEAN_MOTION_DDOT":"6.9139e-06","FILE":"1689592","TLE_LINE0":"0 DELTA 4 DEB","TLE_LINE1":"1 39756U 14026E   14149.38221122  .23811250  69139-5  32980-1 0    82","TLE_LINE2":"2 39756 052.6313 101.4317 1042751 107.8128 024.5569 13.87644907  1388","OBJECT_ID":"2014-026E","OBJECT_NUMBER":"39756"},{"ORDINAL":"2","COMMENT":"GENERATED VIA SPACETRACK.ORG API","ORIGINATOR":"JSPOC","NORAD_CAT_ID":"39756","OBJECT_NAME":"DELTA 4 DEB","OBJECT_TYPE":"DEBRIS","CLASSIFICATION_TYPE":"U","INTLDES":"14026E","EPOCH":"2014-05-28 06:52:54","EPOCH_MICROSECONDS":"686783","MEAN_MOTION":"13.42675671","ECCENTRICITY":"0.1226067","INCLINATION":"52.6612","RA_OF_ASC_NODE":"105.4117","ARG_OF_PERICENTER":"104.1801","MEAN_ANOMALY":"47.7134","EPHEMERIS_TYPE":"0","ELEMENT_SET_NO":"7","REV_AT_EPOCH":"123","BSTAR":"0.041428","MEAN_MOTION_DOT":"0.20023496","MEAN_MOTION_DDOT":"6.4639e-06","FILE":"1689147","TLE_LINE0":"0 DELTA 4 DEB","TLE_LINE1":"1 39756U 14026E   14148.28674406  .20023496  64639-5  41428-1 0    77","TLE_LINE2":"2 39756 052.6612 105.4117 1226067 104.1801 047.7134 13.42675671  1236","OBJECT_ID":"2014-026E","OBJECT_NUMBER":"39756"},{"ORDINAL":"3","COMMENT":"GENERATED VIA SPACETRACK.ORG API","ORIGINATOR":"JSPOC","NORAD_CAT_ID":"39756","OBJECT_NAME":"DELTA 4 DEB","OBJECT_TYPE":"DEBRIS","CLASSIFICATION_TYPE":"U","INTLDES":"14026E","EPOCH":"2014-05-27 08:59:54","EPOCH_MICROSECONDS":"85920","MEAN_MOTION":"13.06425527","ECCENTRICITY":"0.1382751","INCLINATION":"52.6743","RA_OF_ASC_NODE":"108.6365","ARG_OF_PERICENTER":"102.4322","MEAN_ANOMALY":"19.9383","EPHEMERIS_TYPE":"0","ELEMENT_SET_NO":"6","REV_AT_EPOCH":"111","BSTAR":"0.049432","MEAN_MOTION_DOT":"0.20953592","MEAN_MOTION_DDOT":"6.0234e-06","FILE":"1688629","TLE_LINE0":"0 DELTA 4 DEB","TLE_LINE1":"1 39756U 14026E   14147.37493155  .20953592  60234-5  49432-1 0    64","TLE_LINE2":"2 39756 052.6743 108.6365 1382751 102.4322 019.9383 13.06425527  1110","OBJECT_ID":"2014-026E","OBJECT_NUMBER":"39756"}]